INTELSAT 901 (IS-901)   
1 26824U 01024A   18183.47324009 -.00000214  00000-0  00000+0 0  9996
2 26824   0.2761  94.3170 0002850  10.3922 316.5975  1.00270736 62455
ASTRA 2C                
1 26853U 01025A   18183.26841030  .00000136  00000-0  00000+0 0  9996
2 26853   1.2151  90.2924 0003239   6.9294 303.3416  1.00273217 62437
INTELSAT 902 (IS-902)   
1 26900U 01039A   18182.91713170  .00000032  00000-0  00000-0 0  9994
2 26900   0.0355  69.0150 0002942  47.9363 195.0976  1.00271976 61560
EUTELSAT 12 WEST B      
1 26927U 01042A   18182.90230160 -.00000101  00000-0  00000-0 0  9997
2 26927   0.0631  27.2904 0006398  68.1861 136.7456  1.00272083 61369
DIRECTV 4S              
1 26985U 01052A   18183.17175299 -.00000114  00000-0  00000+0 0  9996
2 26985   0.0176  30.9218 0002826  63.3018 146.5715  1.00270246 60847
ECHOSTAR 7              
1 27378U 02006A   18183.16826355 -.00000001  00000-0  00000+0 0  9993
2 27378   0.0208 319.4199 0001691 153.1839 109.3124  1.00271041 59912
INTELSAT 904 (IS-904)   
1 27380U 02007A   18183.09680775  .00000136  00000-0  00000+0 0  9991
2 27380   0.0115  38.4963 0002943  63.7318 257.8048  1.00270135 59948
TDRS 9                  
1 27389U 02011A   18182.90238884 -.00000104  00000-0  00000-0 0  9991
2 27389   6.0249  74.6960 0017955 265.4318 252.5937  1.00272220 61297
JCSAT 2A                
1 27399U 02015A   18182.95697253 -.00000257  00000-0  00000-0 0  9999
2 27399   1.2936  90.3937 0005164 184.3081  82.8002  1.00273917 59740
ASTRA 3A                
1 27400U 02015B   18182.53979791 -.00000285  00000-0  00000+0 0  9996
2 27400   4.5349  67.0221 0002728  32.5414 327.3070  1.00270197 59560
INTELSAT 903 (IS-903)   
1 27403U 02016A   18182.85848985 -.00000225  00000-0  00000-0 0  9990
2 27403   0.6600  94.1886 0003199  12.8729  90.3395  1.00271338 16525
NSS-7                   
1 27414U 02019A   18182.50322694 -.00000159  00000-0  00000-0 0  9997
2 27414   2.6862  81.0610 0002463  19.7417 339.8537  1.00271773 59419
DIRECTV 5 (TEMPO 1)     
1 27426U 02023A   18182.52954806 -.00000057  00000-0  00000-0 0  9990
2 27426   0.0213  25.3879 0003493  76.2021 258.4492  1.00269228 59176
INTELSAT 905 (IS-905)   
1 27438U 02027A   18182.68447368 -.00000185  00000-0  00000+0 0  9995
2 27438   0.0058 332.5778 0002583 107.5287  61.4766  1.00272270 58815
EXPRESS-A4              
1 27441U 02029A   18182.93370652 -.00000253  00000-0  00000-0 0  9997
2 27441   6.6878  54.2089 0009099  72.2864 274.7589  1.00264456 58811
GALAXY 3C (G-3C)        
1 27445U 02030A   18182.48763506 -.00000152  00000-0  00000-0 0  9995
2 27445   0.0182 324.7548 0001457  12.8285  22.4051  1.00271350 17439
EUTELSAT 5 WEST A       
1 27460U 02035A   18182.23846244 -.00000044  00000-0  00000+0 0  9990
2 27460   0.0400 350.1796 0005925 107.5998 262.2829  1.00272204 58592
N-STAR C                
1 27461U 02035B   18183.00372332 -.00000314  00000-0  00000+0 0  9999
2 27461   5.3277  62.7452 0004715  10.6101 343.9844  1.00270817 58518
EUTELSAT 36 WEST A      
1 27508U 02040A   18182.06026800  .00000052  00000-0  00000-0 0  9997
2 27508   0.0949  56.0212 0002330  75.2355 228.7579  1.00272833 58040
METEOSAT-8 (MSG-1)      
1 27509U 02040B   18182.26663882  .00000135  00000-0  00000-0 0  9999
2 27509   5.4896  56.9301 0001262  50.2364 309.6779  1.00281837 58107
INTELSAT 906 (IS-906)   
1 27513U 02041A   18183.15234471  .00000014  00000-0  00000+0 0  9997
2 27513   0.0206  81.3237 0002808  34.4001 283.3917  1.00271756 57826
HISPASAT 1D             
1 27528U 02044A   18183.29688716 -.00000217  00000-0  00000+0 0  9992
2 27528   0.0380 316.7106 0003292 133.5668 266.8814  1.00273104 57802
TDRS 10                 
1 27566U 02055A   18182.86368146  .00000077  00000-0  00000-0 0  9994
2 27566   5.6821  56.7745 0006776 261.4485  98.3933  1.00280232 57083
NSS-6                   
1 27603U 02057A   18183.02849808 -.00000271  00000-0  00000+0 0  9992
2 27603   0.0179  35.7397 0000985  56.8566 292.6737  1.00274522 56942
NIMIQ 2                 
1 27632U 02062A   18182.52328461 -.00000209  00000-0  00000-0 0  9993
2 27632   2.7906  80.3182 0003141 319.8873  39.6974  1.00273268 15054
INTELSAT 907 (IS-907)   
1 27683U 03007A   18182.30065138 -.00000204  00000-0  00000-0 0  9999
2 27683   0.0114 334.8882 0002859 134.0854 251.0575  1.00269100 56295
GALAXY 12 (G-12)        
1 27715U 03013B   18183.22569495  .00000058  00000-0  00000+0 0  9994
2 27715   0.0314 294.7311 0002266 189.9930 107.7244  1.00272316 55854
ASIASAT 4               
1 27718U 03014A   18183.48667442  .00000153  00000-0  00000+0 0  9993
2 27718   0.0296  72.5901 0000390 139.4962 281.7455  1.00274828 55772
HELLAS-SAT 2            
1 27811U 03020A   18183.21785437  .00000152  00000-0  00000+0 0  9999
2 27811   0.2799 107.0650 0004366  63.6765 226.8756  1.00270488 55195
THURAYA-2               
1 27825U 03026A   18182.77480021  .00000127  00000-0  00000-0 0  9994
2 27825   5.2491  30.5734 0004448  64.5795 147.5249  1.00272966 55190
OPTUS C1                
1 27831U 03028B   18183.15014910 -.00000148  00000-0  00000+0 0  9999
2 27831   0.0148 163.5159 0003973 318.4158   8.2695  1.00269455 55178
ECHOSTAR 12 (RAINBOW 1) 
1 27852U 03033A   18182.88755875 -.00000200  00000-0  00000-0 0  9999
2 27852   0.0120 336.3265 0002100  92.9993  83.6800  1.00273455 54811
GALAXY 23 (G-23)        
1 27854U 03034A   18183.23638958  .00000012  00000-0  00000+0 0  9993
2 27854   0.0208  80.7211 0002906  32.6457 130.9685  1.00272328 59394
GALAXY 13 (HORIZONS-1)  
1 27954U 03044A   18182.66406049  .00000047  00000-0  00000-0 0  9994
2 27954   0.0231  88.8309 0001663 288.9591  13.9093  1.00272368 17427
YAMAL 202               
1 28089U 03053A   18183.20167488  .00000119  00000-0  00000+0 0  9995
2 28089   0.0442  86.6927 0004001 344.1731 330.9376  1.00275348 53532
EXPRESS-AM22 (SESAT 2)  
1 28134U 03060A   18182.92070837 -.00000139  00000-0  00000-0 0  9997
2 28134   1.2621  89.9899 0000395  64.7272 176.7447  1.00271779 53120
AMC-10 (GE-10)          
1 28154U 04003A   18183.19474968  .00000087  00000-0  00000+0 0  9990
2 28154   0.0438 288.1472 0002919 169.5691 117.5691  1.00272369 52789
ABS-4 (MOBISAT-1)       
1 28184U 04007A   18183.49129792  .00000040  00000-0  00000+0 0  9991
2 28184   0.0244  52.1828 0001847  57.1081  49.0632  1.00271717 52437
EUTELSAT 7A             
1 28187U 04008A   18182.88104955  .00000047  00000-0  00000-0 0  9999
2 28187   0.0619   6.9313 0004915 114.6881 122.4274  1.00273962 52216
DIRECTV 7S              
1 28238U 04016A   18183.56379962  .00000001  00000-0  00000+0 0  9992
2 28238   0.0187 324.2996 0003171 136.5842 263.5512  1.00271642 51921
AMC-11 (GE-11)          
1 28252U 04017A   18183.22398133  .00000068  00000-0  00000+0 0  9996
2 28252   0.0211 336.0070 0002744 127.9503 125.8868  1.00273662 51559
INTELSAT 10-02          
1 28358U 04022A   18183.40702808 -.00000012  00000-0  00000+0 0  9997
2 28358   0.0192  89.0829 0000232 331.9973   4.8607  1.00270900 51480
APSTAR 5 (TELSTAR 18)   
1 28364U 04024A   18183.01993910 -.00000295  00000-0  00000+0 0  9992
2 28364   0.0363  67.3886 0002688  46.6772 311.1491  1.00265769 51407
ANIK F2                 
1 28378U 04027A   18183.16974656 -.00000050  00000-0  00000+0 0  9991
2 28378   0.0102  24.3944 0000300 121.3897  84.4025  1.00271847 51204
AMC-15                  
1 28446U 04041A   18183.57054539 -.00000089  00000-0  00000+0 0  9999
2 28446   0.0156  22.1599 0002869  76.4022 282.3391  1.00272151 50239
AMC-16                  
1 28472U 04048A   18183.45096205 -.00000207  00000-0  00000+0 0  9990
2 28472   0.0138 351.8326 0002726 114.5357 251.4069  1.00271602 49670
NSS-10 (AMC-12)         
1 28526U 05003A   18182.89732917 -.00000251  00000-0  00000-0 0  9996
2 28526   0.0252 314.8146 0002988 149.6148 101.0430  1.00273180 24019
XTAR-EUR                
1 28542U 05005A   18183.14139893  .00000150  00000-0  00000+0 0  9995
2 28542   0.0178  34.3693 0002498  51.5127 274.1420  1.00271291 49030
XM-3 (RHYTHM)           
1 28626U 05008A   18183.45095964 -.00000206  00000-0  00000+0 0  9998
2 28626   0.0193 179.8299 0000367 260.2931 277.5450  1.00271448 48912
INMARSAT 4-F1           
1 28628U 05009A   18182.87233142 -.00000263  00000-0  00000-0 0  9992
2 28628   2.9253  17.3170 0003222  85.3779 274.7069  1.00271484 48527
APSTAR 6                
1 28638U 05012A   18182.94906565 -.00000319  00000-0  00000+0 0  9992
2 28638   0.0765  94.2013 0002520  23.3059 277.9761  1.00271378 73263
SPACEWAY 1              
1 28644U 05015A   18182.62182237 -.00000103  00000-0  00000+0 0  9990
2 28644   0.0113 209.1649 0000478 303.7584 247.6372  1.00269303 48367
DIRECTV 8               
1 28659U 05019A   18182.50386995 -.00000117  00000-0  00000+0 0  9999
2 28659   0.0234   3.5804 0003220  96.3710 260.0850  1.00270508 48033
GALAXY 28 (G-28)        
1 28702U 05022A   18182.81524023 -.00000186  00000-0  00000+0 0  9998
2 28702   0.0203   9.6694 0000362  31.7604  82.8624  1.00270141 47672
EXPRESS-AM3             
1 28707U 05023A   18182.61291392 -.00000323  00000-0  00000-0 0  9996
2 28707   0.2122  94.0614 0001570 324.0682 185.1067  1.00269619 47682
THAICOM 4               
1 28786U 05028A   18183.35939730 -.00000363  00000-0  00000+0 0  9998
2 28786   0.0128  10.5036 0002444  93.5609  65.1687  1.00271761 47172
GALAXY 14 (G-14)        
1 28790U 05030A   18182.82479909  .00000036  00000-0  00000-0 0  9991
2 28790   0.0225 308.2420 0002548 156.7121 346.7790  1.00271922 47166
ANIK F1R                
1 28868U 05036A   18182.88337144 -.00000075  00000-0  00000-0 0  9997
2 28868   0.0203  48.0589 0002574  33.6425  48.8719  1.00272384 17310
GALAXY 15 (G-15)        
1 28884U 05041A   18182.62583155  .00000078  00000-0  00000-0 0  9990
2 28884   0.0384  63.9079 0001854  48.9207 259.0462  1.00272622 46593
